{
  "type": "FeatureCollection",
  "features": [
    {
      "type": "Feature",
      "geometry": {
        "type": "Point",
        "coordinates": [
          NaN,
          45.4809
        ]
      },
      "properties": {
        "name": "MB test",
        "category": "Landmark",
        "description": "Lookout over downtown at the top of the mountain"
      }
    },
    {
      "type": "Feature",
      "geometry": {
        "type": "Point",
        "coordinates": [
          NaN,
          45.4809
        ]
      },
      "properties": {
        "name": "Jean-Talon Market",
        "category": "Food",
        "description": "Open-air public market in Little Italy"
      }
    },
    {
      "type": "Feature",
      "geometry": {
        "type": "Point",
        "coordinates": [
          NaN,
          45.4809
        ]
      },
      "properties": {
        "name": "Atwater Market",
        "category": "Food",
        "description": "Market hall beside the Lachine Canal"
      }
    },
    {
      "type": "Feature",
      "geometry": {
        "type": "Point",
        "coordinates": [
          NaN,
          45.4809
        ]
      },
      "properties": {
        "name": "Parc La Fontaine",
        "category": "Nature",
        "description": "Park with two ponds in the Plateau"
      }
    },
    {
      "type": "Feature",
      "geometry": {
        "type": "Point",
        "coordinates": [
          NaN,
          45.4809
        ]
      },
      "properties": {
        "name": "Les Sans-Taverne",
        "category": "Food",
        "description": "Coop and craft brewery located in an old factory of Pointe St. Charles"
      }
    },
    {
      "type": "Feature",
      "geometry": {
        "type": "Point",
        "coordinates": [
          NaN,
          45.4809
        ]
      },
      "properties": {
        "name": "Concordia Hall Building",
        "category": "Landmark",
        "description": "Where GEOG 464 meets"
      }
    },
    {
      "type": "Feature",
      "geometry": {
        "type": "Point",
        "coordinates": [
          NaN,
          45.4809
        ]
      },
      "properties": {
        "name": "Purposefully bad entry",
        "category": "Landmark",
        "description": "Test purposefully bad entry"
      }
    }
  ]
}